GPS BIIA-23 (PRN 18)    
1 22877U 93068A   19164.34429553 -.00000090  00000-0  00000+0 0  9997
2 22877  54.6825  68.7127 0152312  79.9234  95.2634  2.00561085187795
GPS BIIR-2  (PRN 13)    
1 24876U 97035A   19163.99676351  .00000082  00000-0  00000+0 0  9996
2 24876  55.4603 198.6310 0032984  71.9619 288.4703  2.00564452160387
GPS BIIR-3  (PRN 11)    
1 25933U 99055A   19163.34906870 -.00000099  00000-0  00000+0 0  9995
2 25933  52.1212  46.0409 0164712 108.8451  70.0393  2.00559054144188
GPS BIIR-4  (PRN 20)    
1 26360U 00025A   19164.19857116  .00000011  00000-0  00000+0 0  9994
2 26360  53.3375 124.6050 0043024 138.1512 340.9715  2.00560824139893
GPS BIIR-5  (PRN 28)    
1 26407U 00040A   19162.56114953 -.00000063  00000-0  00000+0 0  9995
2 26407  56.2634 316.8107 0192250 275.9391  74.1243  2.00560381138545
GPS BIIR-6  (PRN 14)    
1 26605U 00071A   19164.23470720  .00000086  00000-0  00000+0 0  9996
2 26605  55.0348 196.0708 0109193 249.4837 140.9350  2.00559089136175
GPS BIIR-8  (PRN 16)    
1 27663U 03005A   19163.40870993 -.00000071  00000-0  00000+0 0  9990
2 27663  56.3235 316.5508 0106667  32.2627 331.4213  2.00573987119926
GPS BIIR-9  (PRN 21)    
1 27704U 03010A   19164.29142873 -.00000091  00000-0  00000+0 0  9991
2 27704  54.3578  68.1854 0248096 277.6754 326.3178  2.00557792118741
GPS BIIR-10 (PRN 22)    
1 28129U 03058A   19164.19040010  .00000018  00000-0  00000+0 0  9992
2 28129  53.1495 127.3908 0074259 283.2662  75.8742  2.00550183113436
GPS BIIR-11 (PRN 19)    
1 28190U 04009A   19164.15880983 -.00000083  00000-0  00000+0 0  9997
2 28190  56.2672  17.2972 0093879  81.3571 257.0687  2.00568201111618
GPS BIIR-12 (PRN 23)    
1 28361U 04023A   19163.97094903  .00000088  00000-0  00000+0 0  9995
2 28361  54.0502 190.4530 0134651 231.6759 245.5419  2.00575122109692
GPS BIIR-13 (PRN 02)    
1 28474U 04045A   19164.22486693 -.00000090  00000-0  00000+0 0  9998
2 28474  54.7151  67.9382 0191324 260.7320  39.5577  2.00557430107061
GPS BIIRM-1 (PRN 17)    
1 28874U 05038A   19164.08421704 -.00000081  00000-0  00000+0 0  9991
2 28874  56.3903  14.6520 0130503 262.0878  41.5926  2.00554657100462
GPS BIIRM-2 (PRN 31)    
1 29486U 06042A   19164.40791433 -.00000026  00000-0  00000+0 0  9991
2 29486  54.9989 253.1926 0091973 358.9341 102.5549  2.00568716 93187
GPS BIIRM-3 (PRN 12)    
1 29601U 06052A   19164.21483978 -.00000078  00000-0  00000+0 0  9999
2 29601  56.3027 315.4360 0074165  61.7675 298.9650  2.00568985 92092
GPS BIIRM-4 (PRN 15)    
1 32260U 07047A   19164.02802406  .00000089  00000-0  00000+0 0  9990
2 32260  53.1736 186.1436 0111956  43.7502 317.1909  2.00559668 85467
GPS BIIRM-5 (PRN 29)    
1 32384U 07062A   19164.29172909 -.00000081  00000-0  00000+0 0  9994
2 32384  56.4747  15.2837 0009126 102.4238 223.2893  2.00556137 84201
GPS BIIRM-6 (PRN 07)    
1 32711U 08012A   19163.43625304 -.00000031  00000-0  00000+0 0  9996
2 32711  54.7392 252.4226 0129881 219.8887 139.1910  2.00554861 82387
GPS BIIRM-8 (PRN 05)    
1 35752U 09043A   19164.28787576  .00000025  00000-0  00000+0 0  9995
2 35752  54.4308 130.0565 0055439  39.2438 240.9240  2.00559514 71979
GPS BIIF-1  (PRN 25)    
1 36585U 10022A   19164.26230071 -.00000080  00000-0  00000+0 0  9992
2 36585  55.5819 311.7370 0082527  50.6933 313.3738  2.00560446 66225
GPS BIIF-2  (PRN 01)    
1 37753U 11036A   19164.38729935 -.00000087  00000-0  00000+0 0  9998
2 37753  55.9127  71.8897 0087766  39.9640 142.1035  2.00566286 57914
GPS BIIF-3  (PRN 24)    
1 38833U 12053A   19164.12303169 -.00000020  00000-0  00000+0 0  9994
2 38833  53.7742 248.6002 0082016  33.3814 327.1795  2.00558469 48966
GPS BIIF-4  (PRN 27)    
1 39166U 13023A   19163.98186024 -.00000080  00000-0  00000+0 0  9990
2 39166  56.0719  11.4321 0070321  27.0750 333.3357  2.00567422 44509
GPS BIIF-5  (PRN 30)    
1 39533U 14008A   19163.97535900 -.00000031  00000-0  00000+0 0  9998
2 39533  53.9052 254.0009 0041156 193.3527 166.5767  2.00549026 38867
GPS BIIF-6  (PRN 06)    
1 39741U 14026A   19163.26379423 -.00000081  00000-0  00000+0 0  9992
2 39741  55.8916  71.4599 0017141 294.9143  64.9161  2.00572634 37131
GPS BIIF-7  (PRN 09)    
1 40105U 14045A   19161.36181611  .00000071  00000-0  00000+0 0  9996
2 40105  54.5764 190.8597 0009796 102.7536 257.4145  2.00564645 35544
GPS BIIF-8  (PRN 03)    
1 40294U 14068A   19163.22301220  .00000044  00000-0  00000+0 0  9997
2 40294  55.1824 131.6503 0021137  29.2525 330.8408  2.00551887 33800
GPS BIIF-9  (PRN 26)    
1 40534U 15013A   19163.86231841 -.00000079  00000-0  00000+0 0  9995
2 40534  54.5098 310.0992 0036983   6.3204 353.7104  2.00569842 30885
GPS BIIF-10  (PRN 08)   
1 40730U 15033A   19164.02355181 -.00000081  00000-0  00000+0 0  9991
2 40730  55.5969  10.7724 0044609 344.7849  15.1251  2.00554743 28643
GPS BIIF-11  (PRN 10)   
1 41019U 15062A   19164.07063981  .00000032  00000-0  00000+0 0  9998
2 41019  55.1838 131.4319 0046967 208.1740 151.5437  2.00564591 26469
GPS BIIF-12  (PRN 32)   
1 41328U 16007A   19163.16814611  .00000085  00000-0  00000+0 0  9992
2 41328  54.8201 191.1755 0032699 220.5819 139.2369  2.00572380 24506
